NORAD_CAT_ID,OBJECT_NAME,OBJECT_TYPE,EPOCH,MEAN_MOTION,ECCENTRICITY,INCLINATION,RA_OF_ASC_NODE,ARG_OF_PERICENTER,MEAN_ANOMALY,BSTAR,MEAN_MOTION_DOT,MEAN_MOTION_DDOT,TLE_LINE0,TLE_LINE1,TLE_LINE2,SEMIMAJOR_AXIS,PERIOD,APOGEE,PERIGEE,DECAYED
53602.0,STARLINK-4648,PAYLOAD,2023-01-31 03:13:49,15.08849585,0.0001527,53.2164,288.0592,65.779,294.3362,0.00037596,5.702e-05,0.0,0 STARLINK-4648,1 53602U 22104Q   23031.13460552  .00005702  00000-0  37596-3 0  9997,2 53602  53.2164 288.0592 0001527  65.7790 294.3362 15.08849585 23863,6917.851,95.437,540.772,538.66,0.0
53602.0,STARLINK-4648,PAYLOAD,2023-01-31 17:32:18,15.0884379,0.0001532,53.2164,285.3829,82.5533,277.5634,0.00024905,3.678e-05,0.0,0 STARLINK-4648,1 53602U 22104Q   23031.73076521  .00003678  00000-0  24905-3 0  9992,2 53602  53.2164 285.3829 0001532  82.5533 277.5634 15.08843790 23951,6917.869,95.437,540.794,538.674,0.0
53602.0,STARLINK-4648,PAYLOAD,2023-02-01 03:04:37,15.08843257,0.000145,53.2161,283.5989,78.6734,281.4421,0.00035458,5.36e-05,0.0,0 STARLINK-4648,1 53602U 22104Q   23032.12820643  .00005360  00000-0  35458-3 0  9993,2 53602  53.2161 283.5989 0001450  78.6734 281.4421 15.08843257 24703,6917.87,95.437,540.739,538.732,0.0
53602.0,STARLINK-4648,PAYLOAD,2023-02-02 01:20:01,15.08837576,0.0001463,53.2158,279.4359,83.2622,276.8536,8.849e-05,1.121e-05,0.0,0 STARLINK-4648,1 53602U 22104Q   23033.05556942  .00001121  00000-0  88490-4 0  9990,2 53602  53.2158 279.4359 0001463  83.2622 276.8536 15.08837576 24157,6917.888,95.438,540.765,538.741,0.0
53602.0,STARLINK-4648,PAYLOAD,2023-02-03 01:10:47,15.08846602,0.0001514,53.2149,274.9758,83.0036,277.1128,0.0002071,3.01e-05,0.0,0 STARLINK-4648,1 53602U 22104Q   23034.04916665  .00003010  00000-0  20710-3 0  9991,2 53602  53.2149 274.9758 0001514  83.0036 277.1128 15.08846602 24997,6917.86,95.437,540.773,538.678,0.0
53602.0,STARLINK-4648,PAYLOAD,2023-02-03 15:29:16,15.08837643,0.0001823,53.2132,272.3003,80.128,279.9918,5.6232e-05,6.07e-06,0.0,0 STARLINK-4648,1 53602U 22104Q   23034.64533236  .00000607  00000-0  56232-4 0  9994,2 53602  53.2132 272.3003 0001823  80.1280 279.9918 15.08837643 24392,6917.888,95.438,541.014,538.491,0.0
53602.0,STARLINK-4648,PAYLOAD,2023-02-04 21:41:35,15.08858904,0.0001288,53.2156,266.6491,88.5131,271.6009,4.6254e-05,4.49e-06,0.0,0 STARLINK-4648,1 53602U 22104Q   23035.90388172  .00000449  00000-0  46254-4 0  9998,2 53602  53.2156 266.6491 0001288  88.5131 271.6009 15.08858904 24581,6917.823,95.436,540.579,538.797,0.0
53602.0,STARLINK-4648,PAYLOAD,2023-02-05 13:35:27,15.08836952,0.0001232,53.2155,263.676,97.9442,262.1689,7.9105e-05,9.71e-06,0.0,0 STARLINK-4648,1 53602U 22104Q   23036.56629291  .00000971  00000-0  79105-4 0  9992,2 53602  53.2155 263.6760 0001232  97.9442 262.1689 15.08836952 24683,6917.89,95.438,540.607,538.902,0.0
53602.0,STARLINK-4648,PAYLOAD,2023-02-05 21:32:23,15.08839562,0.0001234,53.215,262.1903,78.1642,281.9488,6.3919e-05,7.3e-06,0.0,0 STARLINK-4648,1 53602U 22104Q   23036.89749217  .00000730  00000-0  63919-4 0  9998,2 53602  53.2150 262.1903 0001234  78.1642 281.9488 15.08839562 25425,6917.882,95.438,540.6,538.893,0.0
53602.0,STARLINK-4648,PAYLOAD,2023-02-06 11:50:51,15.08843108,0.0001186,53.2151,259.5135,82.7945,277.3182,0.00011116,1.482e-05,0.0,0 STARLINK-4648,1 53602U 22104Q   23037.49365162  .00001482  00000-0  11116-3 0  9994,2 53602  53.2151 259.5135 0001186  82.7945 277.3182 15.08843108 25517,6917.871,95.437,540.556,538.915,0.0
53602.0,STARLINK-4648,PAYLOAD,2023-02-06 21:23:10,15.08846873,0.0001214,53.2149,257.7289,84.2022,275.9108,9.5591e-05,1.234e-05,0.0,0 STARLINK-4648,1 53602U 22104Q   23037.89108891  .00001234  00000-0  95591-4 0  9997,2 53602  53.2149 257.7289 0001214  84.2022 275.9108 15.08846873 24882,6917.859,95.437,540.564,538.885,0.0
53602.0,STARLINK-4648,PAYLOAD,2023-02-07 13:17:02,15.08834038,0.0001204,53.2149,254.7549,88.7914,271.3216,0.00040129,6.103e-05,0.0,0 STARLINK-4648,1 53602U 22104Q   23038.55349607  .00006103  00000-0  40129-3 0  9999,2 53602  53.2149 254.7549 0001204  88.7914 271.3216 15.08834038 24987,6917.899,95.438,540.597,538.931,0.0
53602.0,STARLINK-4648,PAYLOAD,2023-02-07 21:13:57,15.0884549,0.00012,53.215,253.268,94.6258,265.4871,0.00024962,3.688e-05,0.0,0 STARLINK-4648,1 53602U 22104Q   23038.88468970  .00003688  00000-0  24962-3 0  9992,2 53602  53.2150 253.2680 0001200  94.6258 265.4871 15.08845490 25034,6917.864,95.437,540.559,538.898,0.0
53602.0,STARLINK-4648,PAYLOAD,2023-02-08 13:07:49,15.08835878,0.0001307,53.2148,250.2942,90.9975,269.1166,2.5091e-05,1.11e-06,0.0,0 STARLINK-4648,1 53602U 22104Q   23039.54709517  .00000111  00000-0  25091-4 0  9994,2 53602  53.2148 250.2942 0001307  90.9975 269.1166 15.08835878 25130,6917.893,95.438,540.662,538.854,0.0
53602.0,STARLINK-4648,PAYLOAD,2023-02-08 21:04:44,15.08841162,0.0001278,53.215,248.8077,90.6422,269.4716,9.6705e-05,1.252e-05,0.0,0 STARLINK-4648,1 53602U 22104Q   23039.87829347  .00001252  00000-0  96705-4 0  9991,2 53602  53.2150 248.8077 0001278  90.6422 269.4716 15.08841162 25874,6917.877,95.437,540.626,538.858,0.0
53602.0,STARLINK-4648,PAYLOAD,2023-02-09 09:47:49,15.08836054,0.0001309,53.2151,246.4286,89.9039,270.2103,2.3881e-05,9.2e-07,0.0,0 STARLINK-4648,1 53602U 22104Q   23040.40821545  .00000092  00000-0  23881-4 0  9990,2 53602  53.2151 246.4286 0001309  89.9039 270.2103 15.08836054 25954,6917.892,95.438,540.663,538.852,0.0
53602.0,STARLINK-4648,PAYLOAD,2023-02-09 17:44:45,15.08839687,0.00013,53.215,244.9416,90.2161,269.898,0.00011212,1.497e-05,0.0,0 STARLINK-4648,1 53602U 22104Q   23040.73941536  .00001497  00000-0  11212-3 0  9993,2 53602  53.2150 244.9416 0001300  90.2161 269.8980 15.08839687 25315,6917.881,95.438,540.646,538.847,0.0
53602.0,STARLINK-4648,PAYLOAD,2023-02-09 19:20:08,15.08841037,0.0001294,53.2151,244.6442,90.0018,270.1123,0.00015095,2.115e-05,0.0,0 STARLINK-4648,1 53602U 22104Q   23040.80565540  .00002115  00000-0  15095-3 0  9999,2 53602  53.2151 244.6442 0001294  90.0018 270.1123 15.08841037 26017,6917.877,95.437,540.637,538.847,0.0
53602.0,STARLINK-4648,PAYLOAD,2023-02-10 00:06:17,15.08847144,0.0001328,53.2149,243.7518,90.6219,269.4926,0.00034852,5.264e-05,0.0,0 STARLINK-4648,1 53602U 22104Q   23041.00437346  .00005264  00000-0  34852-3 0  9994,2 53602  53.2149 243.7518 0001328  90.6219 269.4926 15.08847144 26045,6917.859,95.437,540.642,538.805,0.0
53602.0,STARLINK-4648,PAYLOAD,2023-02-10 16:00:12,15.0880007,0.0002421,53.2149,240.7785,69.1566,290.9685,-0.00037024,-6.17e-05,0.0,0 STARLINK-4648,1 53602U 22104Q   23041.66680636 -.00006170  00000-0 -37024-3 0  9991,2 53602  53.2149 240.7785 0002421  69.1566 290.9685 15.08800070 25451,6918.002,95.44,541.542,538.193,0.0
53602.0,STARLINK-4648,PAYLOAD,2023-02-10 19:10:57,15.08830861,0.0001369,53.2148,240.1837,113.9214,246.1921,0.00034418,5.193e-05,0.0,0 STARLINK-4648,1 53602U 22104Q   23041.79927561  .00005193  00000-0  34418-3 0  9992,2 53602  53.2148 240.1837 0001369 113.9214 246.1921 15.08830861 25479,6917.908,95.438,540.72,538.826,0.0
53602.0,STARLINK-4648,PAYLOAD,2023-02-11 09:29:25,15.08852139,0.0001436,53.2154,237.5089,73.5359,286.5791,0.00082705,0.00012903,0.0,0 STARLINK-4648,1 53602U 22104Q   23042.39543494  .00012903  00000-0  82705-3 0  9997,2 53602  53.2154 237.5089 0001436  73.5359 286.5791 15.08852139 25566,6917.843,95.437,540.702,538.715,0.0
53602.0,STARLINK-4648,PAYLOAD,2023-02-11 12:40:11,15.08862034,0.0001513,53.2151,236.9128,93.2326,266.8839,0.00098792,0.00015479,0.0,0 STARLINK-4648,1 53602U 22104Q   23042.52791217  .00015479  00000-0  98792-3 0  9994,2 53602  53.2151 236.9128 0001513  93.2326 266.8839 15.08862034 26277,6917.813,95.436,540.725,538.631,0.0
53602.0,STARLINK-4648,PAYLOAD,2023-02-11 19:01:43,15.08890328,0.0001487,53.215,235.7236,89.1755,270.9408,0.0017214,0.00027252,0.0,0 STARLINK-4648,1 53602U 22104Q   23042.79286465  .00027252  00000-0  17214-2 0  9998,2 53602  53.2150 235.7236 0001487  89.1755 270.9408 15.08890328 25626,6917.727,95.434,540.62,538.563,0.0
53602.0,STARLINK-4648,PAYLOAD,2023-02-12 12:30:57,15.0884052,0.0001459,53.2156,232.4527,76.196,283.9194,-0.00021239,-3.667e-05,0.0,0 STARLINK-4648,1 53602U 22104Q   23043.52150006 -.00003667  00000-0 -21239-3 0  9990,2 53602  53.2156 232.4527 0001459  76.1960 283.9194 15.08840520 25739,6917.879,95.438,540.753,538.734,0.0
53602.0,STARLINK-4648,PAYLOAD,2023-02-12 22:03:16,15.0885019,0.0001452,53.2157,230.6674,87.4036,272.7122,0.0005526,8.52e-05,0.0,0 STARLINK-4648,1 53602U 22104Q   23043.91894040  .00008520  00000-0  55260-3 0  9998,2 53602  53.2157 230.6674 0001452  87.4036 272.7122 15.08850190 25792,6917.849,95.437,540.719,538.71,0.0
53602.0,STARLINK-4648,PAYLOAD,2023-02-13 12:21:44,15.08843448,0.0001564,53.2157,227.9914,78.1889,281.9278,0.00049401,7.584e-05,0.0,0 STARLINK-4648,1 53602U 22104Q   23044.51510292  .00007584  00000-0  49401-3 0  9998,2 53602  53.2157 227.9914 0001564  78.1889 281.9278 15.08843448 25887,6917.87,95.437,540.817,538.653,0.0
53602.0,STARLINK-4648,PAYLOAD,2023-02-13 18:43:17,15.08852341,0.0001529,53.2158,226.8016,81.2662,278.8503,0.00059347,9.173e-05,0.0,0 STARLINK-4648,1 53602U 22104Q   23044.78006002  .00009173  00000-0  59347-3 0  9992,2 53602  53.2158 226.8016 0001529  81.2662 278.8503 15.08852341 26614,6917.843,95.437,540.765,538.65,0.0
53602.0,STARLINK-4648,PAYLOAD,2023-02-14 18:34:04,15.08845611,0.0001385,53.2156,222.3421,82.306,277.809,0.00021013,3.058e-05,0.0,0 STARLINK-4648,1 53602U 22104Q   23045.77366036  .00003058  00000-0  21013-3 0  9993,2 53602  53.2156 222.3421 0001385  82.3060 277.8090 15.08845611 26079,6917.863,95.437,540.686,538.77,0.0
53602.0,STARLINK-4648,PAYLOAD,2023-02-15 12:03:18,15.08842234,0.0001368,53.2165,219.0696,79.3026,280.812,6.6861e-05,7.76e-06,0.0,0 STARLINK-4648,1 53602U 22104Q   23046.50230029  .00000776  00000-0  66861-4 0  9992,2 53602  53.2165 219.0696 0001368  79.3026 280.8120 15.08842234 26879,6917.874,95.437,540.685,538.792,0.0
